{
  "type": "FeatureCollection",
  "features": [
    {
      "type": "Feature",
      "properties": {
        "norad_id": 41581,
        "name": "INTELSAT 31 (IS-31)",
        "group": "intelsat",
        "lat": -0.011841833618543868,
        "lon": -88.11172244947774,
        "alt_km": 35781.850782004025,
        "timestamp": "2025-12-14T18:52:55.166062+00:00",
        "meta_object_name": "INTELSAT 31 (IS-31)",
        "meta_object_id": "2016-035A",
        "meta_epoch": "2025-12-13T21:33:28.971936",
        "meta_mean_motion": 1.00272637,
        "meta_eccentricity": 0.00019195,
        "meta_inclination": 0.0193,
        "meta_ra_of_asc_node": 270.1586,
        "meta_arg_of_pericenter": 301.2918,
        "meta_mean_anomaly": 99.6912,
        "meta_ephemeris_type": 0,
        "meta_classification_type": "U",
        "meta_norad_cat_id": 41581,
        "meta_element_set_no": 999,
        "meta_rev_at_epoch": 3482,
        "meta_bstar": 0,
        "meta_mean_motion_dot": -1.35e-06,
        "meta_mean_motion_ddot": 0,
        "tle_line1": "1 41581U 16035A   25347.89825199 -.00000135  00000+0  00000+0 0  9994",
        "tle_line2": "2 41581   0.0193 270.1586 0001919 301.2918  99.6912  1.00272637 34828"
      },
      "geometry": {
        "type": "Point",
        "coordinates": [
          -88.11172244947774,
          -0.011841833618543868
        ]
      }
    },
    {
      "type": "Feature",
      "properties": {
        "norad_id": 41747,
        "name": "INTELSAT 36 (IS-36)",
        "group": "intelsat",
        "lat": 0.030758073515107908,
        "lon": 75.42870282303272,
        "alt_km": 35787.29248895724,
        "timestamp": "2025-12-14T18:52:55.166074+00:00",
        "meta_object_name": "INTELSAT 36 (IS-36)",
        "meta_object_id": "2016-053A",
        "meta_epoch": "2025-12-13T12:03:51.221952",
        "meta_mean_motion": 1.00272804,
        "meta_eccentricity": 0.00013954,
        "meta_inclination": 0.0113,
        "meta_ra_of_asc_node": 0.4303,
        "meta_arg_of_pericenter": 329.8168,
        "meta_mean_anomaly": 1.6387,
        "meta_ephemeris_type": 0,
        "meta_classification_type": "U",
        "meta_norad_cat_id": 41747,
        "meta_element_set_no": 999,
        "meta_rev_at_epoch": 3408,
        "meta_bstar": 0,
        "meta_mean_motion_dot": -1e-07,
        "meta_mean_motion_ddot": 0,
        "tle_line1": "1 41747U 16053A   25347.50267618 -.00000010  00000+0  00000+0 0  9994",
        "tle_line2": "2 41747   0.0113   0.4303 0001395 329.8168   1.6387  1.00272804 34089"
      },
      "geometry": {
        "type": "Point",
        "coordinates": [
          75.42870282303272,
          0.030758073515107908
        ]
      }
    },
    {
      "type": "Feature",
      "properties": {
        "norad_id": 41945,
        "name": "INTELSAT 32E (IS-32E)",
        "group": "intelsat",
        "lat": -0.0336761392542791,
        "lon": -36.2540285532176,
        "alt_km": 35784.49123464305,
        "timestamp": "2025-12-14T18:52:55.166086+00:00",
        "meta_object_name": "INTELSAT 32E (IS-32E)",
        "meta_object_id": "2017-007B",
        "meta_epoch": "2025-12-12T11:33:44.679168",
        "meta_mean_motion": 1.00273861,
        "meta_eccentricity": 3.861e-05,
        "meta_inclination": 0.0354,
        "meta_ra_of_asc_node": 82.6036,
        "meta_arg_of_pericenter": 280.6351,
        "meta_mean_anomaly": 208.4399,
        "meta_ephemeris_type": 0,
        "meta_classification_type": "U",
        "meta_norad_cat_id": 41945,
        "meta_element_set_no": 999,
        "meta_rev_at_epoch": 3235,
        "meta_bstar": 0,
        "meta_mean_motion_dot": -2.58e-06,
        "meta_mean_motion_ddot": 0,
        "tle_line1": "1 41945U 17007B   25346.48176712 -.00000258  00000+0  00000+0 0  9998",
        "tle_line2": "2 41945   0.0354  82.6036 0000386 280.6351 208.4399  1.00273861 32350"
      },
      "geometry": {
        "type": "Point",
        "coordinates": [
          -36.2540285532176,
          -0.0336761392542791
        ]
      }
    },
    {
      "type": "Feature",
      "properties": {
        "norad_id": 42818,
        "name": "INTELSAT 35E (IS-35E)",
        "group": "intelsat",
        "lat": -0.016017262285349422,
        "lon": -27.54760137132856,
        "alt_km": 35782.81736484322,
        "timestamp": "2025-12-14T18:52:55.166098+00:00",
        "meta_object_name": "INTELSAT 35E (IS-35E)",
        "meta_object_id": "2017-041A",
        "meta_epoch": "2025-12-13T21:50:42.321984",
        "meta_mean_motion": 1.00273139,
        "meta_eccentricity": 0.00020318,
        "meta_inclination": 0.0173,
        "meta_ra_of_asc_node": 19.0161,
        "meta_arg_of_pericenter": 243.6113,
        "meta_mean_anomaly": 113.3915,
        "meta_ephemeris_type": 0,
        "meta_classification_type": "U",
        "meta_norad_cat_id": 42818,
        "meta_element_set_no": 999,
        "meta_rev_at_epoch": 3095,
        "meta_bstar": 0,
        "meta_mean_motion_dot": -2.21e-06,
        "meta_mean_motion_ddot": 0,
        "tle_line1": "1 42818U 17041A   25347.91021206 -.00000221  00000+0  00000+0 0  9992",
        "tle_line2": "2 42818   0.0173  19.0161 0002031 243.6113 113.3915  1.00273139 30956"
      },
      "geometry": {
        "type": "Point",
        "coordinates": [
          -27.54760137132856,
          -0.016017262285349422
        ]
      }
    },
    {
      "type": "Feature",
      "properties": {
        "norad_id": 42950,
        "name": "INTELSAT 37E (IS-37E)",
        "group": "intelsat",
        "lat": 0.00015303500240769456,
        "lon": -11.037854504771587,
        "alt_km": 35786.47566624178,
        "timestamp": "2025-12-14T18:52:55.166110+00:00",
        "meta_object_name": "INTELSAT 37E (IS-37E)",
        "meta_object_id": "2017-059A",
        "meta_epoch": "2025-12-13T21:55:26.868288",
        "meta_mean_motion": 1.00272151,
        "meta_eccentricity": 0.00030341,
        "meta_inclination": 0.0035,
        "meta_ra_of_asc_node": 76.683,
        "meta_arg_of_pericenter": 180.1559,
        "meta_mean_anomaly": 136.8685,
        "meta_ephemeris_type": 0,
        "meta_classification_type": "U",
        "meta_norad_cat_id": 42950,
        "meta_element_set_no": 999,
        "meta_rev_at_epoch": 3020,
        "meta_bstar": 0,
        "meta_mean_motion_dot": -1.24e-06,
        "meta_mean_motion_ddot": 0,
        "tle_line1": "1 42950U 17059A   25347.91350542 -.00000124  00000+0  00000+0 0  9998",
        "tle_line2": "2 42950   0.0035  76.6830 0003034 180.1559 136.8685  1.00272151 30200"
      },
      "geometry": {
        "type": "Point",
        "coordinates": [
          -11.037854504771587,
          0.00015303500240769456
        ]
      }
    },
    {
      "type": "Feature",
      "properties": {
        "norad_id": 43632,
        "name": "AZERSPACE 2 (IS-38)",
        "group": "intelsat",
        "lat": 0.036994364893240164,
        "lon": 52.04233822347436,
        "alt_km": 35790.56325619467,
        "timestamp": "2025-12-14T18:52:55.166122+00:00",
        "meta_object_name": "AZERSPACE 2 (IS-38)",
        "meta_object_id": "2018-074A",
        "meta_epoch": "2025-12-13T11:57:06.868224",
        "meta_mean_motion": 1.00271726,
        "meta_eccentricity": 0.00013299,
        "meta_inclination": 0.0179,
        "meta_ra_of_asc_node": 341.0856,
        "meta_arg_of_pericenter": 285.6516,
        "meta_mean_anomaly": 40.0836,
        "meta_ephemeris_type": 0,
        "meta_classification_type": "U",
        "meta_norad_cat_id": 43632,
        "meta_element_set_no": 999,
        "meta_rev_at_epoch": 2658,
        "meta_bstar": 0,
        "meta_mean_motion_dot": 1.51e-06,
        "meta_mean_motion_ddot": 0,
        "tle_line1": "1 43632U 18074A   25347.49799616  .00000151  00000+0  00000+0 0  9995",
        "tle_line2": "2 43632   0.0179 341.0856 0001329 285.6516  40.0836  1.00271726 26580"
      },
      "geometry": {
        "type": "Point",
        "coordinates": [
          52.04233822347436,
          0.036994364893240164
        ]
      }
    },
    {
      "type": "Feature",
      "properties": {
        "norad_id": 43633,
        "name": "HORIZONS-3E",
        "group": "intelsat",
        "lat": -0.023433262716632326,
        "lon": 175.89139701880669,
        "alt_km": 35788.65259836858,
        "timestamp": "2025-12-14T18:52:55.166133+00:00",
        "meta_object_name": "HORIZONS-3E",
        "meta_object_id": "2018-074B",
        "meta_epoch": "2025-12-13T15:57:58.800096",
        "meta_mean_motion": 1.00269269,
        "meta_eccentricity": 0.00010406,
        "meta_inclination": 0.0438,
        "meta_ra_of_asc_node": 185.0943,
        "meta_arg_of_pericenter": 106.5973,
        "meta_mean_anomaly": 199.3899,
        "meta_ephemeris_type": 0,
        "meta_classification_type": "U",
        "meta_norad_cat_id": 43633,
        "meta_element_set_no": 999,
        "meta_rev_at_epoch": 2648,
        "meta_bstar": 0,
        "meta_mean_motion_dot": -1.5e-07,
        "meta_mean_motion_ddot": 0,
        "tle_line1": "1 43633U 18074B   25347.66526389 -.00000015  00000+0  00000+0 0  9990",
        "tle_line2": "2 43633   0.0438 185.0943 0001040 106.5973 199.3899  1.00269269 26485"
      },
      "geometry": {
        "type": "Point",
        "coordinates": [
          175.89139701880669,
          -0.023433262716632326
        ]
      }
    }
  ]
}